437P/Lemmon-PANSTARRS,e,3.6888,245.8413,207.1009,4.569745,0.1008942,0.25500332,115.8816,10/12.0/2025,2000,g 13.0,4.0
# From MPEC 2025-A40
438P/Christensen,e,8.2807,260.1083,58.9668,3.853168,0.1303098,0.41409114,263.1662,10/12.0/2025,2000,g 14.5,4.0
# From MPEC 2022-C56
439P/LINEAR,e,7.1113,56.4379,342.1080,3.492041,0.1510376,0.46897777,227.7139,10/12.0/2025,2000,g 13.5,4.0
# From MPEC 2024-N80
440P/Kobayashi,e,12.3535,328.7956,183.3081,8.580363,0.0392144,0.76095787,50.6431,10/12.0/2025,2000,g 15.5,4.0
# From MPEC 2025-SH3
441P/PANSTARRS,e,2.5745,143.5861,178.8598,4.131506,0.1173658,0.19450026,3.8329,10/12.0/2025,2000,g 13.5,4.0
# From MPEC 2024-N80
442P/McNaught,e,6.0578,31.9188,310.6208,4.952463,0.0894277,0.53262207,102.9859,10/12.0/2025,2000,g 13.5,4.0
# From MPEC 2024-TD8
443P/PANSTARRS-Christensen,e,19.8880,108.9333,145.0512,4.124440,0.1176675,0.28284588,129.3024,10/12.0/2025,2000,g 13.5,4.0
# From MPEC 2023-VM5
444P/WISE-PANSTARRS,e,22.7044,88.1936,172.8226,3.477214,0.1520047,0.55569578,182.7744,10/12.0/2025,2000,g 17.0,4.0
# From MPEC 2025-R69
445P/Lemmon-PANSTARRS,e,1.0891,126.5938,213.1300,4.044926,0.1211541,0.41435624,139.6934,10/12.0/2025,2000,g 15.0,4.0
# From MPEC 2024-NE4
446P/McNaught,e,16.6377,336.3163,344.6098,4.558408,0.1012708,0.64686197,124.8268,10/12.0/2025,2000,g 16.5,4.0
# From MPEC 2022-YB4
447P/Sheppard-Tholen,e,7.4415,302.6380,97.4336,5.624214,0.0738944,0.17707308,85.2476,10/12.0/2025,2000,g 12.0,4.0
# From MPEC 2024-PC5
448P/PANSTARRS,e,12.1436,161.7510,218.8065,3.636761,0.1421124,0.41800696,160.8764,10/12.0/2025,2000,g 16.0,4.0
# From MPEC 2024-DC6
449P/Leonard,e,15.4691,242.5200,176.7763,3.599649,0.1443158,0.47973270,257.0733,10/12.0/2025,2000,g 16.0,4.0
# From MPEC 2025-ST8
450P/LONEOS,e,10.7928,124.0349,24.9578,7.900628,0.0443825,0.31367032,338.2436,10/12.0/2025,2000,g  6.5,4.0
# From MPEC 2023-HD1
451P/Christensen,e,26.4867,300.8637,186.8103,6.351369,0.0615748,0.55928726,64.5869,10/12.0/2025,2000,g 13.5,4.0
# From MPEC 2024-NE4
452P/Sheppard-Jewitt,e,6.4222,123.6619,37.1125,7.312748,0.0498406,0.42869586,44.8491,10/12.0/2025,2000,g  9.0,4.0
# From MPEC 2023-RF3
453P/WISE-Lemmon,e,27.0563,42.8886,70.9138,5.468282,0.0770775,0.58317736,73.4976,10/12.0/2025,2000,g 14.0,4.0
# From MPEC 2023-CD7
454P/PANSTARRS,e,19.8077,54.5865,20.2153,4.211995,0.1140177,0.36134287,133.7771,10/12.0/2025,2000,g 14.0,4.0
# From MPEC 2022-Y14
455P/PANSTARRS,e,14.1340,146.1769,237.5399,3.153667,0.1759869,0.30431665,168.9844,10/12.0/2025,2000,g 17.0,4.0
# From MPC182892
456P/PANSTARRS,e,16.9649,243.1390,232.9813,3.168863,0.1747225,0.11569918,31.4873,10/12.0/2025,2000,g 13.5,4.0
# From MPEC 2025-A40
457P/Lemmon-PANSTARRS,e,5.2258,175.9639,104.2965,2.645022,0.2291185,0.11833146,95.7768,10/12.0/2025,2000,g 15.5,4.0
# From MPEC 2023-HD1
458P/Jahn,e,13.6218,1.5524,104.9594,3.859462,0.1299912,0.31726379,140.0108,10/12.0/2025,2000,g 14.0,4.0
# From MPEC 2024-N80
459P/Catalina,e,7.1734,256.9868,205.2328,3.240463,0.1689637,0.57787826,162.7483,10/12.0/2025,2000,g 15.5,4.0
# From MPEC 2023-G14
460P/PANSTARRS,e,18.9004,180.5175,351.9317,3.027447,0.1871067,0.66427256,295.5212,10/12.0/2025,2000,g 21.0,4.0
# From MPEC 2024-GJ3
461P/WISE,e,18.3966,194.3743,174.8284,3.144582,0.1767501,0.56947636,259.5885,10/12.0/2025,2000,g 18.5,4.0
# From MPEC 2024-BE0
462P/LONEOS-PANSTARRS,e,7.0535,322.6387,4.1733,4.859016,0.0920199,0.57866961,107.4939,10/12.0/2025,2000,g 17.0,4.0
# From MPEC 2024-GJ3
463P/NEOWISE,e,29.2964,283.2185,216.3416,2.974027,0.1921705,0.82596277,178.1505,10/12.0/2025,2000,g 18.0,4.0
# From MPEC 2024-Q20
464P/PANSTARRS,e,21.6740,309.5790,267.4970,4.683310,0.0972467,0.28066840,93.1358,10/12.0/2025,2000,g 10.5,4.0
# From MPEC 2024-NE4
465P/Hill,e,25.8617,217.9401,140.9713,6.005323,0.0669730,0.61303270,59.4217,10/12.0/2025,2000,g 12.5,4.0
# From MPEC 2024-JU4
466P/PANSTARRS,e,14.1369,116.4527,198.1528,3.993538,0.1235001,0.48875445,108.7427,10/12.0/2025,2000,g 14.0,4.0
# From MPEC 2025-A40
467P/LINEAR-Grauer,e,2.4794,43.2622,267.3097,5.824943,0.0701078,0.05431971,73.8037,10/12.0/2025,2000,g  9.0,4.0
# From MPEC 2024-O39
468P/SidingSpring,e,50.4542,356.1286,322.5651,7.115499,0.0519273,0.44481212,35.8831,10/12.0/2025,2000,g 11.5,4.0
# From MPEC 2025-A40
469P/PANSTARRS,e,20.1713,178.9663,43.4911,4.343218,0.1088897,0.30811497,353.7515,10/12.0/2025,2000,g 13.5,4.0
# From MPC182892
470P/PANSTARRS,e,8.8439,246.1633,151.6624,4.462491,0.1045534,0.38928267,69.5725,10/12.0/2025,2000,g 15.5,4.0
# From MPC182892
471P/LINEAR-Lemmon,e,4.7970,283.3126,94.7502,5.690065,0.0726153,0.62761116,48.0917,10/12.0/2025,2000,g 12.0,4.0
# From MPEC 2025-ST8
472P/NEAT-LINEAR,e,10.8255,205.8191,218.8154,7.768737,0.0455175,0.56406329,20.7186,10/12.0/2025,2000,g 10.5,4.0
# From MPEC 2024-MB8
473P/NEAT,e,56.8893,22.1911,42.9438,7.973590,0.0437747,0.82358684,25.9922,10/12.0/2025,2000,g 13.5,4.0
# From MPEC 2024-B74
474P/Hogan,e,1.0969,26.7514,11.2696,3.130762,0.1779217,0.18795535,145.7903,10/12.0/2025,2000,g 15.5,4.0
# From MPC185666
475P/Spacewatch-LINEAR,e,14.5239,147.3549,40.4180,7.319571,0.0497709,0.44295433,24.7501,10/12.0/2025,2000,g 11.0,4.0
# From MPC184421
476P/PANSTARRS,e,19.0053,57.0487,46.7405,4.774634,0.0944700,0.34579735,34.0576,10/12.0/2025,2000,g 12.5,4.0
# From MPEC 2024-GJ3
477P/PANSTARRS,e,8.9138,59.1413,305.8637,3.001682,0.1895209,0.41755969,124.2356,10/12.0/2025,2000,g 14.5,4.0
# From MPEC 2024-L77
478P/ATLAS,e,12.5250,127.2599,13.2604,3.648342,0.1414363,0.34380064,74.6453,10/12.0/2025,2000,g 13.5,4.0
# From MPEC 2024-PC5
479P/Elenin,e,15.3998,295.8326,263.4972,5.622614,0.0739259,0.77895375,38.7898,10/12.0/2025,2000,g 15.0,4.0
# From MPC182893
480P/PANSTARRS,e,13.7160,229.9834,214.4525,4.611548,0.0995254,0.24627003,89.7807,10/12.0/2025,2000,g 12.0,4.0
# From MPEC 2025-A40
481P/Lemmon-PANSTARRS,e,6.0827,93.5498,356.8316,4.682469,0.0972729,0.34343566,80.3096,10/12.0/2025,2000,g 13.5,4.0
# From MPEC 2024-JU4
482P/PANSTARRS,e,24.4886,126.0731,339.7399,3.757172,0.1353357,0.49236353,116.7636,10/12.0/2025,2000,g 13.5,4.0
# From MPC186638
483P-A/PANSTARRS,e,14.1753,199.0775,49.4440,3.195394,0.1725510,0.22182199,228.7093,10/12.0/2025,2000,g 13.5,4.0
# From MPC185666
483P-B/PANSTARRS,e,14.1761,199.0767,49.4347,3.195314,0.1725575,0.22176434,228.7451,10/12.0/2025,2000,g 17.0,4.0
# From MPEC 2024-DD5
484P/Spacewatch,e,14.4742,265.3740,240.8178,3.756465,0.1353740,0.43307174,240.7977,10/12.0/2025,2000,g 16.0,4.0
# From MPEC 2024-JU4
485P/Sheppard-Tholen,e,10.0161,261.6446,196.1274,6.852298,0.0549477,0.41719058,42.7843,10/12.0/2025,2000,g 13.0,4.0
# From MPEC 2025-T80
486P/Leonard,e,2.2096,219.0240,93.9394,3.627192,0.1426751,0.36343152,27.2757,10/12.0/2025,2000,g 14.5,4.0
# From MPEC 2025-ST8
487P/SidingSpring,e,39.3662,49.2008,0.8401,5.161018,0.0840623,0.64837457,29.9626,10/12.0/2025,2000,g 13.5,4.0
# From MPEC 2024-UA9
488P/NEAT-PANSTARRS,e,11.4064,323.7386,2.0684,3.748312,0.1358159,0.55152061,69.2694,10/12.0/2025,2000,g 16.5,4.0
# From MPEC 2024-Q14
489P/Denning,e,4.0259,20.6025,109.4181,4.425890,0.1058530,0.64722618,354.3570,10/12.0/2025,2000,g 15.5,4.0
# From MPEC 2024-YC7
490P/ATLAS,e,12.2670,307.5914,332.5720,3.030465,0.1868272,0.64703508,70.7819,10/12.0/2025,2000,g 21.0,4.0
# From MPEC 2025-T80
491P/Spacewatch-PANSTARRS,e,9.3668,311.6834,298.8544,5.012854,0.0878166,0.25867967,35.2287,10/12.0/2025,2000,g  9.5,4.0
# From MPC185666
492P/LINEAR,e,11.4011,11.3048,40.9817,5.758690,0.0713212,0.69054600,31.9935,10/12.0/2025,2000,g 15.0,4.0
# From MPEC 2025-T80
493P/LONEOS,e,24.1091,1.0945,83.2157,7.172972,0.0513045,0.46702981,355.1727,10/12.0/2025,2000,g 12.0,2.0
# From MPEC 2024-RQ6
494P/PANSTARRS,e,7.7899,245.0434,48.8838,3.794376,0.1333501,0.35673213,66.5469,10/12.0/2025,2000,g 16.0,4.0
# From MPEC 2025-T80
495P/Christensen,e,26.3560,291.6141,141.3345,4.759672,0.0949158,0.27309604,359.0202,10/12.0/2025,2000,g 11.5,4.0
# From MPEC 2025-ST8
496P/Hill,e,14.8144,63.5862,42.2488,6.099026,0.0654355,0.73420243,14.1159,10/12.0/2025,2000,g 14.0,4.0
# From MPC184421
497P/Spacewatch-PANSTARRS,e,10.4369,40.3628,32.3917,5.611943,0.0741369,0.63028223,17.6994,10/12.0/2025,2000,g 17.5,4.0
# From MPC184421
498P/LINEAR,e,14.4827,279.2299,179.0868,4.592861,0.1001334,0.57227952,29.7481,10/12.0/2025,2000,g 14.7,4.0
# From MPEC 2025-R69
499P/Catalina,e,24.5829,139.3056,2.5637,3.017939,0.1879916,0.69148675,41.6592,10/12.0/2025,2000,g 18.5,4.0
# From MPC185667
500P/PANSTARRS,e,2.3015,111.5268,46.6997,3.416085,0.1561029,0.37592715,30.2882,10/12.0/2025,2000,g 16.0,4.0
# From MPC182882
501P/Rankin,e,10.0473,139.7827,53.6870,2.227920,0.2963840,0.69852183,161.7317,10/12.0/2025,2000,g 21.5,4.0
# From MPEC 2025-T80
502P/NEAT,e,11.3995,264.4841,37.7316,7.995964,0.0435911,0.47104763,2.9638,10/12.0/2025,2000,g  8.5,4.0
# From MPC185667
503P/PANSTARRS,e,10.5748,268.5819,17.9455,3.658041,0.1408741,0.48131608,356.5409,10/12.0/2025,2000,g 15.0,4.0
# From MPC186639
504P/,e,8.8065,221.1201,308.5314,3.744717,0.1360115,0.40606925,25.2910,10/12.0/2025,2000,g 14.3,4.0
# From MPC184407
505P/Palomar,e,11.3883,111.9420,143.9564,4.112799,0.1181674,0.31066493,348.4581,10/12.0/2025,2000,g 14.9,4.0
# From MPC186639
506P/,e,13.6537,325.6331,354.5518,5.584621,0.0746816,0.48253140,58.0538,10/12.0/2025,2000,g 12.7,4.0
# From MPC184407
507P/Lemmon,e,17.0940,233.1550,107.7673,6.214682,0.0636174,0.56864107,66.5444,10/12.0/2025,2000,g 12.6,4.0
# From MPEC 2025-R69
508P/McNaught,e,31.7334,268.8301,338.8783,3.574937,0.1458148,0.56942014,13.5243,10/12.0/2025,2000,g 16.5,4.0
# From MPEC 2025-R69
509P/Catalina,e,8.6042,275.2074,180.1132,7.034400,0.0528279,0.47503257,351.6054,10/12.0/2025,2000,g 10.0,4.0
# From MPEC 2025-SH3
510P/Boattini,e,8.2277,280.6698,86.6844,6.483873,0.0596970,0.24811317,340.1680,10/12.0/2025,2000,g  9.5,4.0
# From MPC107687
1I/`Oumuamua,h,09/09.4886/2017,122.6778,24.5997,241.6845,1.199252,0.255240,2000,23.0,2.0
# From MPEC 2025-R69
2I/Borisov,h,12/09.0572/2019,44.2624,307.8024,209.2911,3.345952,1.997724,2000,11.0,4.0
# From MPEC 2025-T80
